OBJECT_NAME,OBJECT_ID,EPOCH,MEAN_MOTION,ECCENTRICITY,INCLINATION,RA_OF_ASC_NODE,ARG_OF_PERICENTER,MEAN_ANOMALY,EPHEMERIS_TYPE,CLASSIFICATION_TYPE,NORAD_CAT_ID,ELEMENT_SET_NO,REV_AT_EPOCH,BSTAR,MEAN_MOTION_DOT,MEAN_MOTION_DDOT
STARLINK-4677,2022-104N,2026-07-15T22:00:01.999584,15.29438035,.00006936,53.1594,27.4417,35.8656,332.0163,0,U,53600,999,575,.3606883E-2,.105479E-2,0
STARLINK-4675,2022-104P,2026-07-15T22:00:01.999584,15.35323503,.00008297,53.1605,25.4667,77.2825,228.2856,0,U,53601,999,580,.18098541E-2,.63125E-3,0
STARLINK-4648,2022-104Q,2026-07-15T22:00:01.999584,15.12031101,.00022571,53.1593,23.1391,45.5040,335.5135,0,U,53602,999,580,.39358724E-2,.68777E-3,0
STARLINK-4692,2022-104R,2026-07-15T22:29:24.358272,15.08832601,.00014813,53.1607,23.3057,89.5025,270.6136,0,U,53603,999,21504,.3557936E-5,-.231E-5,0
STARLINK-4690,2022-104S,2026-07-15T22:00:01.999584,15.15717592,.00025021,53.1605,22.8796,114.7910,38.8808,0,U,53604,999,580,.3789275E-2,.73502E-3,0
STARLINK-4590,2022-104U,2026-07-15T22:00:01.999584,15.19675833,.00004778,53.1609,18.0690,103.3113,312.4900,0,U,53606,999,574,.3659498E-2,.79606E-3,0
STARLINK-4591,2022-104V,2026-07-15T21:12:13.133376,15.34386266,.00011629,53.1625,18.7670,98.3654,261.7480,0,U,53607,999,21510,.30096954E-4,.64E-5,0
STARLINK-4647,2022-104W,2026-07-15T22:00:01.999584,15.17467338,.0000821,53.1610,18.2133,111.7415,230.0249,0,U,53608,999,569,.36823149E-2,.75099E-3,0
STARLINK-4660,2022-104X,2026-07-15T21:38:11.747904,15.35397991,.00010513,53.1617,18.8802,78.4157,281.6964,0,U,53609,999,21510,.1677957E-5,-.322E-5,0
STARLINK-4610,2022-104Y,2026-07-15T22:23:29.316480,15.08829977,.00011701,53.1615,18.2734,89.8204,270.2921,0,U,53610,999,21499,-.14888511E-4,-.525E-5,0
STARLINK-4658,2022-104AA,2026-07-15T22:00:01.999584,15.15079513,.00019897,53.1616,18.1724,177.8479,183.7680,0,U,53612,999,559,.39055993E-2,.74415E-3,0
STARLINK-4655,2022-104AB,2026-07-15T22:00:01.999584,15.15904459,.00013927,53.1610,18.2645,116.7386,198.1046,0,U,53613,999,574,.39207342E-2,.76499E-3,0
STARLINK-4605,2022-104AE,2026-07-15T19:02:01.264416,15.08834757,.00012904,53.1617,8.6542,89.0150,271.0990,0,U,53616,999,21522,.36972037E-4,.3E-5,0
STARLINK-4609,2022-104AH,2026-07-15T22:00:01.999584,15.14597665,.00015606,53.1603,18.1364,159.1278,220.2443,0,U,53619,999,579,.40291362E-2,.75751E-3,0
STARLINK-4615,2022-104AJ,2026-07-15T22:00:01.999584,15.13649499,.00016822,53.1594,18.0119,92.4064,350.6153,0,U,53620,999,580,.43098454E-2,.78946E-3,0
STARLINK-4608,2022-104AK,2026-07-15T22:00:01.999584,15.16152352,.00005983,53.1597,18.0637,106.1770,310.1465,0,U,53621,999,579,.39425898E-2,.77483E-3,0
STARLINK-4568,2022-104AL,2026-07-15T22:00:01.999584,15.14489577,.0003548,53.1592,17.7547,58.2760,156.7800,0,U,53622,999,579,.4084921E-2,.76585E-3,0
STARLINK-4573,2022-104AM,2026-07-15T21:33:00.138528,15.31705484,.00013753,53.1628,13.8531,86.3310,273.7849,0,U,53623,999,21516,-.10068728E-3,-.3489E-4,0
STARLINK-4596,2022-104AN,2026-07-15T21:39:43.252416,15.31704444,.00012309,53.1618,13.8789,87.2900,272.8243,0,U,53624,999,21516,.65390869E-4,.1665E-4,0
STARLINK-4554,2022-104AQ,2026-07-15T22:00:01.999584,15.18450213,.00014159,53.1613,17.5098,18.1265,322.4703,0,U,53626,999,574,.35017274E-2,.73437E-3,0
STARLINK-4595,2022-104AR,2026-07-15T22:00:01.999584,15.16478608,.00023476,53.1593,17.7726,54.1704,150.9251,0,U,53627,999,575,.37590275E-2,.74524E-3,0
STARLINK-4600,2022-104AS,2026-07-15T22:00:01.999584,15.14931452,.00032613,53.1598,17.7025,72.5882,168.1390,0,U,53628,999,579,.39966417E-2,.75857E-3,0
STARLINK-4602,2022-104AT,2026-07-15T22:00:01.999584,15.13789164,.00020245,53.1595,17.8490,31.8248,133.4042,0,U,53629,999,575,.41253279E-2,.75818E-3,0
STARLINK-4598,2022-104AU,2026-07-15T22:00:01.999584,15.25826389,.00013877,53.1596,7.7019,95.9827,158.7809,0,U,53630,999,574,.33075235E-2,.86382E-3,0
STARLINK-4599,2022-104AV,2026-07-15T22:00:01.999584,15.15200349,.00003474,53.1610,17.6252,104.3818,176.6278,0,U,53631,999,579,.41664452E-2,.79737E-3,0
STARLINK-4606,2022-104AW,2026-07-15T20:26:49.880544,15.08833264,.00011719,53.1621,8.4991,100.5813,259.5310,0,U,53632,999,21557,.27605296E-4,.151E-5,0
STARLINK-4593,2022-104AX,2026-07-15T20:32:08.736288,15.08827642,.00016336,53.1616,8.5222,99.4162,260.7014,0,U,53633,999,21524,-.19947491E-4,-.605E-5,0
STARLINK-4592,2022-104AY,2026-07-15T18:40:49.884960,15.08832048,.00012128,53.1614,8.7519,91.2520,268.8610,0,U,53634,999,21556,.3302173E-5,-.235E-5,0
STARLINK-4586,2022-104BA,2026-07-15T21:40:59.440800,15.08823971,.00016048,53.1624,8.1050,120.1637,239.9514,0,U,53636,999,21558,-.84548243E-4,-.1633E-4,0
STARLINK-4396,2022-104BB,2026-07-15T20:54:44.112960,15.08834413,.00013209,53.1615,8.6099,93.0598,267.0545,0,U,53637,999,21557,.22185845E-4,.65E-6,0
