STARLINK-4677           
1 53600U 22104N   26196.91668981  .00105479  00000+0  36069-2 0  9996
2 53600  53.1594  27.4417 0000693  35.8656 332.0163 15.29438035  5754
STARLINK-4675           
1 53601U 22104P   26196.91668981  .00063125  00000+0  18099-2 0  9991
2 53601  53.1605  25.4667 0000829  77.2825 228.2856 15.35323503  5803
STARLINK-4648           
1 53602U 22104Q   26196.91668981  .00068777  00000+0  39359-2 0  9992
2 53602  53.1593  23.1391 0002257  45.5040 335.5135 15.12031101  5800
STARLINK-4692           
1 53603U 22104R   26196.93708748 -.00000231  00000+0  35579-5 0  9996
2 53603  53.1607  23.3057 0001481  89.5025 270.6136 15.08832601215045
STARLINK-4690           
1 53604U 22104S   26196.91668981  .00073502  00000+0  37893-2 0  9997
2 53604  53.1605  22.8796 0002502 114.7910  38.8808 15.15717592  5807
STARLINK-4590           
1 53606U 22104U   26196.91668981  .00079606  00000+0  36595-2 0  9998
2 53606  53.1609  18.0690 0000477 103.3113 312.4900 15.19675833  5743
STARLINK-4591           
1 53607U 22104V   26196.88348534  .00000640  00000+0  30097-4 0  9999
2 53607  53.1625  18.7670 0001162  98.3654 261.7480 15.34386266215100
STARLINK-4647           
1 53608U 22104W   26196.91668981  .00075099  00000+0  36823-2 0  9996
2 53608  53.1610  18.2133 0000821 111.7415 230.0249 15.17467338  5694
STARLINK-4660           
1 53609U 22104X   26196.90152486 -.00000322  00000+0  16780-5 0  9995
2 53609  53.1617  18.8802 0001051  78.4157 281.6964 15.35397991215101
STARLINK-4610           
1 53610U 22104Y   26196.93297820 -.00000525  00000+0 -14889-4 0  9995
2 53610  53.1615  18.2734 0001170  89.8204 270.2921 15.08829977214997
STARLINK-4658           
1 53612U 22104AA  26196.91668981  .00074415  00000+0  39056-2 0  9993
2 53612  53.1616  18.1724 0001989 177.8479 183.7680 15.15079513  5593
STARLINK-4655           
1 53613U 22104AB  26196.91668981  .00076499  00000+0  39207-2 0  9996
2 53613  53.1610  18.2645 0001392 116.7386 198.1046 15.15904459  5747
STARLINK-4605           
1 53616U 22104AE  26196.79307019  .00000300  00000+0  36972-4 0  9993
2 53616  53.1617   8.6542 0001290  89.0150 271.0990 15.08834757215224
STARLINK-4609           
1 53619U 22104AH  26196.91668981  .00075751  00000+0  40291-2 0  9997
2 53619  53.1603  18.1364 0001560 159.1278 220.2443 15.14597665  5799
STARLINK-4615           
1 53620U 22104AJ  26196.91668981  .00078946  00000+0  43098-2 0  9996
2 53620  53.1594  18.0119 0001682  92.4064 350.6153 15.13649499  5804
STARLINK-4608           
1 53621U 22104AK  26196.91668981  .00077483  00000+0  39426-2 0  9992
2 53621  53.1597  18.0637 0000598 106.1770 310.1465 15.16152352  5790
STARLINK-4568           
1 53622U 22104AL  26196.91668981  .00076585  00000+0  40849-2 0  9996
2 53622  53.1592  17.7547 0003548  58.2760 156.7800 15.14489577  5793
STARLINK-4573           
1 53623U 22104AM  26196.89791827 -.00003489  00000+0 -10069-3 0  9997
2 53623  53.1628  13.8531 0001375  86.3310 273.7849 15.31705484215167
STARLINK-4596           
1 53624U 22104AN  26196.90258394  .00001665  00000+0  65391-4 0  9998
2 53624  53.1618  13.8789 0001230  87.2900 272.8243 15.31704444215160
STARLINK-4554           
1 53626U 22104AQ  26196.91668981  .00073437  00000+0  35017-2 0  9994
2 53626  53.1613  17.5098 0001415  18.1265 322.4703 15.18450213  5744
STARLINK-4595           
1 53627U 22104AR  26196.91668981  .00074524  00000+0  37590-2 0  9991
2 53627  53.1593  17.7726 0002347  54.1704 150.9251 15.16478608  5754
STARLINK-4600           
1 53628U 22104AS  26196.91668981  .00075857  00000+0  39966-2 0  9991
2 53628  53.1598  17.7025 0003261  72.5882 168.1390 15.14931452  5797
STARLINK-4602           
1 53629U 22104AT  26196.91668981  .00075818  00000+0  41253-2 0  9991
2 53629  53.1595  17.8490 0002024  31.8248 133.4042 15.13789164  5757
STARLINK-4598           
1 53630U 22104AU  26196.91668981  .00086382  00000+0  33075-2 0  9994
2 53630  53.1596   7.7019 0001387  95.9827 158.7809 15.25826389  5744
STARLINK-4599           
1 53631U 22104AV  26196.91668981  .00079737  00000+0  41664-2 0  9994
2 53631  53.1610  17.6252 0000347 104.3818 176.6278 15.15200349  5796
STARLINK-4606           
1 53632U 22104AW  26196.85196621  .00000151  00000+0  27605-4 0  9990
2 53632  53.1621   8.4991 0001171 100.5813 259.5310 15.08833264215573
STARLINK-4593           
1 53633U 22104AX  26196.85565667 -.00000605  00000+0 -19947-4 0  9997
2 53633  53.1616   8.5222 0001633  99.4162 260.7014 15.08827642215244
STARLINK-4592           
1 53634U 22104AY  26196.77835515 -.00000235  00000+0  33022-5 0  9990
2 53634  53.1614   8.7519 0001212  91.2520 268.8610 15.08832048215567
STARLINK-4586           
1 53636U 22104BA  26196.90346575 -.00001633  00000+0 -84548-4 0  9992
2 53636  53.1624   8.1050 0001604 120.1637 239.9514 15.08823971215589
STARLINK-4396           
1 53637U 22104BB  26196.87134390  .00000065  00000+0  22186-4 0  9995
2 53637  53.1615   8.6099 0001320  93.0598 267.0545 15.08834413215575
